$$SOE
2460154.500000000, A.D. 2023-Jul-29 00:00:00.0000, 1.908616171137720E+08, 4.002384188809173E+08, -1.050167082176421E+08,
2460161.500000000, A.D. 2023-Aug-05 00:00:00.0000, 1.819650884820949E+08, 4.053055078276315E+08, -1.076226104522998E+08,
2460168.500000000, A.D. 2023-Aug-12 00:00:00.0000, 1.729762192425708E+08, 4.101666004716057E+08, -1.101737772303490E+08,
2460175.500000000, A.D. 2023-Aug-19 00:00:00.0000, 1.639004023673402E+08, 4.148211979901717E+08, -1.126694420664189E+08,
2460182.500000000, A.D. 2023-Aug-26 00:00:00.0000, 1.547429813110633E+08, 4.192689335129175E+08, -1.151088860400295E+08,
2460189.500000000, A.D. 2023-Sep-02 00:00:00.0000, 1.455092468842803E+08, 4.235095678144915E+08, -1.174914367714703E+08,
2460196.500000000, A.D. 2023-Sep-09 00:00:00.0000, 1.362044343971559E+08, 4.275429849103502E+08, -1.198164673849325E+08,
2460203.500000000, A.D. 2023-Sep-16 00:00:00.0000, 1.268337212327957E+08, 4.313691875086176E+08, -1.220833954836056E+08,
2460210.500000000, A.D. 2023-Sep-23 00:00:00.0000, 1.174022252571657E+08, 4.349882926155323E+08, -1.242916821560282E+08,
2460217.500000000, A.D. 2023-Sep-30 00:00:00.0000, 1.079150037173152E+08, 4.384005284950109E+08, -1.264408308897970E+08,
2460224.500000000, A.D. 2023-Oct-07 00:00:00.0000, 9.837705026551124E+07, 4.416062324464073E+08, -1.285303862244242E+08,
2460231.500000000, A.D. 2023-Oct-14 00:00:00.0000, 8.879329113828781E+07, 4.446058460933809E+08, -1.305599325117783E+08,
2460238.500000000, A.D. 2023-Oct-21 00:00:00.0000, 7.916858370912829E+07, 4.473999097948986E+08, -1.325290929530815E+08,
2460245.500000000, A.D. 2023-Oct-28 00:00:00.0000, 6.950771598251635E+07, 4.499890584440848E+08, -1.344375286001354E+08,
2460252.500000000, A.D. 2023-Nov-04 00:00:00.0000, 5.981540576990179E+07, 4.523740178875591E+08, -1.362849372703317E+08,
2460259.500000000, A.D. 2023-Nov-11 00:00:00.0000, 5.009629971453020E+07, 4.545556013686864E+08, -1.380710524419125E+08,
2460266.500000000, A.D. 2023-Nov-18 00:00:00.0000, 4.035497237399331E+07, 4.565347059343753E+08, -1.397956421565598E+08,
2460273.500000000, A.D. 2023-Nov-25 00:00:00.0000, 3.059592542333888E+07, 4.583123088321939E+08, -1.414585079363796E+08,
2460280.500000000, A.D. 2023-Dec-02 00:00:00.0000, 2.082358699796083E+07, 4.598894638904721E+08, -1.430594837212314E+08,
2460287.500000000, A.D. 2023-Dec-09 00:00:00.0000, 1.104231124599674E+07, 4.612672978253954E+08, -1.445984348405380E+08,
2460294.500000000, A.D. 2023-Dec-16 00:00:00.0000, 1.256378370009168E+06, 4.624470064895006E+08, -1.460752570465975E+08,
2460301.500000000, A.D. 2023-Dec-23 00:00:00.0000, -8.530004501382317E+06, 4.634298517502717E+08, -1.474898755865909E+08,
2460308.500000000, A.D. 2023-Dec-30 00:00:00.0000, -1.831270295936620E+07, 4.642171600488759E+08, -1.488422441059326E+08,
2460315.500000000, A.D. 2024-Jan-06 00:00:00.0000, -2.808765725765961E+07, 4.648103202771180E+08, -1.501323434134424E+08,
2460322.500000000, A.D. 2024-Jan-13 00:00:00.0000, -3.785088338827428E+07, 4.652107791643107E+08, -1.513601805468511E+08,
2460329.500000000, A.D. 2024-Jan-20 00:00:00.0000, -4.759847207526820E+07, 4.654200372598509E+08, -1.525257880006303E+08,
2460336.500000000, A.D. 2024-Jan-27 00:00:00.0000, -5.732658772148278E+07, 4.654396461641035E+08, -1.536292228783823E+08,
2460343.500000000, A.D. 2024-Feb-03 00:00:00.0000, -6.703146774283527E+07, 4.652712060580081E+08, -1.546705660086831E+08,
2460350.500000000, A.D. 2024-Feb-10 00:00:00.0000, -7.670942201905710E+07, 4.649163632392763E+08, -1.556499210742161E+08,
2460357.500000000, A.D. 2024-Feb-17 00:00:00.0000, -8.635683232804728E+07, 4.643768076720758E+08, -1.565674137668538E+08,
2460364.500000000, A.D. 2024-Feb-24 00:00:00.0000, -9.597015173338704E+07, 4.636542705637436E+08, -1.574231909711884E+08,
2460371.500000000, A.D. 2024-Mar-02 00:00:00.0000, -1.055459039008586E+08, 4.627505219345049E+08, -1.582174199820686E+08,
2460378.500000000, A.D. 2024-Mar-09 00:00:00.0000, -1.150806822101544E+08, 4.616673681156127E+08, -1.589502877740449E+08,
2460385.500000000, A.D. 2024-Mar-16 00:00:00.0000, -1.245711482713873E+08, 4.604066493713447E+08, -1.596220003428255E+08,
2460392.500000000, A.D. 2024-Mar-23 00:00:00.0000, -1.340140299548011E+08, 4.589702387523671E+08, -1.602327820188082E+08,
2460399.500000000, A.D. 2024-Mar-30 00:00:00.0000, -1.434061211787045E+08, 4.573600421523405E+08, -1.607828745496159E+08,
2460406.500000000, A.D. 2024-Apr-06 00:00:00.0000, -1.527442832026197E+08, 4.555779961973199E+08, -1.612725362494231E+08,
2460413.500000000, A.D. 2024-Apr-13 00:00:00.0000, -1.620254438791271E+08, 4.536260648011997E+08, -1.617020414714196E+08,
2460420.500000000, A.D. 2024-Apr-20 00:00:00.0000, -1.712465958211105E+08, 4.515062370626495E+08, -1.620716800978393E+08,
2460427.500000000, A.D. 2024-Apr-27 00:00:00.0000, -1.804047950043430E+08, 4.492205259406831E+08, -1.623817569543895E+08,
2460434.500000000, A.D. 2024-May-04 00:00:00.0000, -1.894971597203110E+08, 4.467709670032043E+08, -1.626325912140328E+08,
2460441.500000000, A.D. 2024-May-11 00:00:00.0000, -1.985208696439293E+08, 4.441596171445597E+08, -1.628245158197140E+08,
2460448.500000000, A.D. 2024-May-18 00:00:00.0000, -2.074731649370530E+08, 4.413885532918038E+08, -1.629578769312870E+08,
2460455.500000000, A.D. 2024-May-25 00:00:00.0000, -2.163513453657514E+08, 4.384598710907928E+08, -1.630330333990062E+08,
2460462.500000000, A.D. 2024-Jun-01 00:00:00.0000, -2.251527693739515E+08, 4.353756835129654E+08, -1.630503562732463E+08,
2460469.500000000, A.D. 2024-Jun-08 00:00:00.0000, -2.338748528693388E+08, 4.321381193581476E+08, -1.630102283743538E+08,
2460476.500000000, A.D. 2024-Jun-15 00:00:00.0000, -2.425150673241180E+08, 4.287493221967708E+08, -1.629130439141566E+08,
2460483.500000000, A.D. 2024-Jun-22 00:00:00.0000, -2.510709381978454E+08, 4.252114509252944E+08, -1.627592079805510E+08,
2460490.500000000, A.D. 2024-Jun-29 00:00:00.0000, -2.595400458049131E+08, 4.215266801128488E+08, -1.625491358388591E+08,
2460497.500000000, A.D. 2024-Jul-06 00:00:00.0000, -2.679200259817745E+08, 4.176971976652192E+08, -1.622832524926640E+08,
2460504.500000000, A.D. 2024-Jul-13 00:00:00.0000, -2.762085686064211E+08, 4.137252026267880E+08, -1.619619924504111E+08,
2460511.500000000, A.D. 2024-Jul-20 00:00:00.0000, -2.844034159581760E+08, 4.096129042671154E+08, -1.615857994214494E+08,
2460518.500000000, A.D. 2024-Jul-27 00:00:00.0000, -2.925023615754596E+08, 4.053625214909881E+08, -1.611551259595386E+08,
2460525.500000000, A.D. 2024-Aug-03 00:00:00.0000, -3.005032493401812E+08, 4.009762821952296E+08, -1.606704331093127E+08,
2460532.500000000, A.D. 2024-Aug-10 00:00:00.0000, -3.084039726244937E+08, 3.964564225665085E+08, -1.601321900713924E+08,
2460539.500000000, A.D. 2024-Aug-17 00:00:00.0000, -3.162024734537110E+08, 3.918051863409261E+08, -1.595408738888994E+08,
2460546.500000000, A.D. 2024-Aug-24 00:00:00.0000, -3.238967416582771E+08, 3.870248240022221E+08, -1.588969691597812E+08,
2460553.500000000, A.D. 2024-Aug-31 00:00:00.0000, -3.314848138996674E+08, 3.821175918560329E+08, -1.582009677903881E+08,
2460560.500000000, A.D. 2024-Sep-07 00:00:00.0000, -3.389647722051659E+08, 3.770857511052334E+08, -1.574533688131567E+08,
2460567.500000000, A.D. 2024-Sep-14 00:00:00.0000, -3.463347419269406E+08, 3.719315679207530E+08, -1.566546781945139E+08,
2460574.500000000, A.D. 2024-Sep-21 00:00:00.0000, -3.535928911552128E+08, 3.666573149193358E+08, -1.558054084132458E+08,
2460581.500000000, A.D. 2024-Sep-28 00:00:00.0000, -3.607374320732297E+08, 3.612652708198900E+08, -1.549060780283266E+08,
2460588.500000000, A.D. 2024-Oct-05 00:00:00.0000, -3.677666205838041E+08, 3.557577182782277E+08, -1.539572115716020E+08,
2460595.500000000, A.D. 2024-Oct-12 00:00:00.0000, -3.746787545688311E+08, 3.501369428780755E+08, -1.529593394880624E+08,
2460602.500000000, A.D. 2024-Oct-19 00:00:00.0000, -3.814721725338346E+08, 3.444052330066262E+08, -1.519129979854232E+08,
2460609.500000000, A.D. 2024-Oct-26 00:00:00.0000, -3.881452526701728E+08, 3.385648798125795E+08, -1.508187288553973E+08,
2460616.500000000, A.D. 2024-Nov-02 00:00:00.0000, -3.946964120775401E+08, 3.326181770973008E+08, -1.496770793019155E+08,
2460623.500000000, A.D. 2024-Nov-09 00:00:00.0000, -4.011241060501999E+08, 3.265674211587756E+08, -1.484886017829884E+08,
2460630.500000000, A.D. 2024-Nov-16 00:00:00.0000, -4.074268274011084E+08, 3.204149105876778E+08, -1.472538538681338E+08,
2460637.500000000, A.D. 2024-Nov-23 00:00:00.0000, -4.136031057770385E+08, 3.141629459647821E+08, -1.459733981193409E+08,
2460644.500000000, A.D. 2024-Nov-30 00:00:00.0000, -4.196515067564096E+08, 3.078138294161988E+08, -1.446478020177252E+08,
2460651.500000000, A.D. 2024-Dec-07 00:00:00.0000, -4.255706303103873E+08, 3.013698644460902E+08, -1.432776379394990E+08,
2460658.500000000, A.D. 2024-Dec-14 00:00:00.0000, -4.313591093161522E+08, 2.948333572698167E+08, -1.418634830177092E+08,
2460665.500000000, A.D. 2024-Dec-21 00:00:00.0000, -4.370156104415565E+08, 2.882066184062265E+08, -1.404059187784771E+08,
2460672.500000000, A.D. 2024-Dec-28 00:00:00.0000, -4.425388354285439E+08, 2.814919615616459E+08, -1.389055309748555E+08,
2460679.500000000, A.D. 2025-Jan-04 00:00:00.0000, -4.479275201772119E+08, 2.746917021805168E+08, -1.373629096612408E+08,
2460686.500000000, A.D. 2025-Jan-11 00:00:00.0000, -4.531804334520823E+08, 2.678081573209588E+08, -1.357786492050715E+08,
2460693.500000000, A.D. 2025-Jan-18 00:00:00.0000, -4.582963761282077E+08, 2.608436459359030E+08, -1.341533482267787E+08,
2460700.500000000, A.D. 2025-Jan-25 00:00:00.0000, -4.632741807337090E+08, 2.538004890849707E+08, -1.324876095288320E+08,
2460707.500000000, A.D. 2025-Feb-01 00:00:00.0000, -4.681127110990502E+08, 2.466810100464640E+08, -1.307820400332323E+08,
2460714.500000000, A.D. 2025-Feb-08 00:00:00.0000, -4.728108620544712E+08, 2.394875343485624E+08, -1.290372507306978E+08,
2460721.500000000, A.D. 2025-Feb-15 00:00:00.0000, -4.773675591465310E+08, 2.322223896992041E+08, -1.272538566453433E+08,
$$EOE